ONEWEB-0365             
1 49291U 21090N   26156.13182934  .00000007  00000+0 -14051-4 0  9990
2 49291  87.9170 307.3684 0001721  95.9492 264.1837 13.19726875224838
ONEWEB-0366             
1 49292U 21090P   26156.10480318 -.00000084  00000+0 -26111-3 0  9990
2 49292  87.8950 292.1149 0001956  99.8054 260.3297 13.14502404225977
ONEWEB-0367             
1 49293U 21090Q   26156.26930242  .00002076  00000+0  50704-2 0  9999
2 49293  87.9280 276.8159 0001716 104.4719 255.6605 13.20791598228255
ONEWEB-0368             
1 49294U 21090R   26156.09171715 -.00001230  00000+0 -30583-2 0  9999
2 49294  87.9170 276.8627 0001240  82.4065 277.7210 13.20778332229388
ONEWEB-0369             
1 49295U 21090S   26156.12709369  .00000055  00000+0  10468-3 0  9999
2 49295  87.9158 307.3777 0001755  93.2719 266.8615 13.19726921224825
ONEWEB-0370             
1 49296U 21090T   26156.27859054  .00000108  00000+0  23472-3 0  9991
2 49296  87.9189 276.8133 0002067 107.8589 252.2770 13.20774437228293
ONEWEB-0371             
1 49297U 21090U   26154.46701471  .00000042  00000+0  72277-4 0  9995
2 49297  87.9165 307.7000 0001749  98.3258 261.8073 13.19727326224648
ONEWEB-0372             
1 49298U 21090V   26156.26835637  .00000202  00000+0  46418-3 0  9993
2 49298  87.9190 276.8171 0001918  99.3742 260.7608 13.20771931228266
ONEWEB-0373             
1 49299U 21090W   26156.06648395  .00000073  00000+0  14664-3 0  9999
2 49299  87.9185 276.8579 0002063 101.1602 258.9763 13.20770418229421
ONEWEB-0374             
1 49300U 21090X   26156.09212252 -.00000192  00000+0 -55330-3 0  9993
2 49300  87.8961 292.1081 0002392  89.2174 270.9230 13.14502168225976
ONEWEB-0375             
1 49301U 21090Y   26156.28197541  .00000221  00000+0  51056-3 0  9990
2 49301  87.9190 276.8064 0002506  92.6614 267.4806 13.20773348228954
ONEWEB-0376             
1 49302U 21090Z   26154.46543622  .00000048  00000+0  86892-4 0  9998
2 49302  87.9169 307.6998 0001646  93.4587 266.6734 13.19724178224640
ONEWEB-0377             
1 49303U 21090AA  26156.26865182  .00000101  00000+0  21764-3 0  9993
2 49303  87.9183 276.8107 0002118  98.8189 261.3184 13.20772006228941
ONEWEB-0378             
1 49304U 21090AB  26156.06155984  .00000072  00000+0  14402-3 0  9992
2 49304  87.9183 276.8575 0002037  96.5144 263.6222 13.20773605228187
ONEWEB-0379             
1 49305U 21090AC  26156.08735765 -.00000139  00000+0 -40827-3 0  9992
2 49305  87.8959 292.1197 0001943  94.6368 265.4983 13.14501739225979
ONEWEB-0380             
1 49306U 21090AD  26156.13025707  .00000040  00000+0  67404-4 0  9997
2 49306  87.9160 307.3743 0002046  97.2105 262.9260 13.19725232224839
ONEWEB-0381             
1 49307U 21090AE  26156.03787402  .00000060  00000+0  11674-3 0  9993
2 49307  87.9193 276.8604 0002088  90.2844 269.8529 13.20773080228228
ONEWEB-0382             
1 49308U 21090AF  26156.10013502  .00000017  00000+0  88890-5 0  9993
2 49308  87.9192 276.8435 0002108  94.8283 265.3091 13.20771961228221
ONEWEB-0383             
1 49309U 21090AG  26156.30935792  .00000032  00000+0  50983-4 0  9998
2 49309  87.8961 292.0667 0001887  93.0956 267.0390 13.14504524226033
ONEWEB-0384             
1 49310U 21090AH  26156.31642861  .00000023  00000+0  23925-4 0  9999
2 49310  87.9189 276.8445 0002171  88.3443 271.7939 13.20812043228260
ONEWEB-0385             
1 49311U 21090AJ  26156.09343005  .00000035  00000+0  54866-4 0  9994
2 49311  87.9196 276.8491 0002034 102.7542 257.3819 13.20771495228205
ONEWEB-0386             
1 49312U 21090AK  26155.73147655 -.00000006  00000+0 -46630-4 0  9998
2 49312  87.9205 276.9106 0001990 100.3473 259.7885 13.20772712228176
ONEWEB-0387             
1 49313U 21090AL  26156.09511312 -.00000054  00000+0 -16475-3 0  9990
2 49313  87.9181 276.8645 0002345  99.7213 260.4186 13.20772871228220
ONEWEB-0388             
1 49314U 21090AM  26156.12551851  .00000051  00000+0  95300-4 0  9997
2 49314  87.9160 307.3735 0001917  91.8408 268.2944 13.19726718224828
ONEWEB-0389             
1 50469U 21132A   26156.27673138  .00000005  00000+0 -20871-4 0  9997
2 50469  87.9142   8.2378 0002186  86.2978 273.8403 13.17647789216517
ONEWEB-0390             
1 50470U 21132B   26156.27841786  .00000137  00000+0  31926-3 0  9992
2 50470  87.9141   8.2381 0001812  94.3802 265.7537 13.17647804216519
ONEWEB-0391             
1 50471U 21132C   26156.28010665  .00000029  00000+0  40649-4 0  9991
2 50471  87.9144   8.2475 0002620  94.3447 265.7984 13.17647960216519
ONEWEB-0392             
1 50472U 21132D   26156.08268278  .00000012  00000+0 -31541-5 0  9990
2 50472  87.9148   8.2542 0002250  85.4826 274.6563 13.17650157216525
ONEWEB-0393             
1 50473U 21132E   26156.28602342 -.00000042  00000+0 -14065-3 0  9991
2 50473  87.9141   8.2319 0002007  87.1832 272.9529 13.17649485216544
ONEWEB-0394             
1 50474U 21132F   26156.03373133 -.00000267  00000+0 -70981-3 0  9996
2 50474  87.9166 337.8603 0002058  85.8803 274.2564 13.18686730219999
