OBJECT_NAME,OBJECT_ID,EPOCH,MEAN_MOTION,ECCENTRICITY,INCLINATION,RA_OF_ASC_NODE,ARG_OF_PERICENTER,MEAN_ANOMALY,EPHEMERIS_TYPE,CLASSIFICATION_TYPE,NORAD_CAT_ID,ELEMENT_SET_NO,REV_AT_EPOCH,BSTAR,MEAN_MOTION_DOT,MEAN_MOTION_DDOT
ONEWEB-0365,2021-090N,2026-06-05T03:09:50.054976,13.19726875,.00017216,87.9170,307.3684,95.9492,264.1837,0,U,49291,999,22483,-.14050864E-4,.7E-7,0
ONEWEB-0366,2021-090P,2026-06-05T02:30:54.994752,13.14502404,.00019561,87.8950,292.1149,99.8054,260.3297,0,U,49292,999,22597,-.26110703E-3,-.84E-6,0
ONEWEB-0367,2021-090Q,2026-06-05T06:27:47.729088,13.20791598,.00017169,87.9280,276.8159,104.4719,255.6605,0,U,49293,999,22825,.5070416E-2,.2076E-4,0
ONEWEB-0368,2021-090R,2026-06-05T02:12:04.361760,13.20778332,.00012409,87.9170,276.8627,82.4065,277.7210,0,U,49294,999,22938,-.30583202E-2,-.123E-4,0
ONEWEB-0369,2021-090S,2026-06-05T03:03:00.894816,13.19726921,.00017555,87.9158,307.3777,93.2719,266.8615,0,U,49295,999,22482,.10468084E-3,.55E-6,0
ONEWEB-0370,2021-090T,2026-06-05T06:41:10.222656,13.20774437,.00020677,87.9189,276.8133,107.8589,252.2770,0,U,49296,999,22829,.23472382E-3,.108E-5,0
ONEWEB-0371,2021-090U,2026-06-03T11:12:30.070944,13.19727326,.00017495,87.9165,307.7000,98.3258,261.8073,0,U,49297,999,22464,.7227665E-4,.42E-6,0
ONEWEB-0372,2021-090V,2026-06-05T06:26:25.990368,13.20771931,.00019181,87.9190,276.8171,99.3742,260.7608,0,U,49298,999,22826,.46418211E-3,.202E-5,0
ONEWEB-0373,2021-090W,2026-06-05T01:35:44.213280,13.20770418,.00020637,87.9185,276.8579,101.1602,258.9763,0,U,49299,999,22942,.14664037E-3,.73E-6,0
ONEWEB-0374,2021-090X,2026-06-05T02:12:39.385728,13.14502168,.00023926,87.8961,292.1081,89.2174,270.9230,0,U,49300,999,22597,-.55330101E-3,-.192E-5,0
ONEWEB-0375,2021-090Y,2026-06-05T06:46:02.675424,13.20773348,.00025066,87.9190,276.8064,92.6614,267.4806,0,U,49301,999,22895,.51056297E-3,.221E-5,0
ONEWEB-0376,2021-090Z,2026-06-03T11:10:13.689408,13.19724178,.00016467,87.9169,307.6998,93.4587,266.6734,0,U,49302,999,22464,.86892232E-4,.48E-6,0
ONEWEB-0377,2021-090AA,2026-06-05T06:26:51.517248,13.20772006,.00021186,87.9183,276.8107,98.8189,261.3184,0,U,49303,999,22894,.21763669E-3,.101E-5,0
ONEWEB-0378,2021-090AB,2026-06-05T01:28:38.770176,13.20773605,.00020378,87.9183,276.8575,96.5144,263.6222,0,U,49304,999,22818,.14401985E-3,.72E-6,0
ONEWEB-0379,2021-090AC,2026-06-05T02:05:47.700960,13.14501739,.00019437,87.8959,292.1197,94.6368,265.4983,0,U,49305,999,22597,-.40827305E-3,-.139E-5,0
ONEWEB-0380,2021-090AD,2026-06-05T03:07:34.210848,13.19725232,.00020462,87.9160,307.3743,97.2105,262.9260,0,U,49306,999,22483,.67403857E-4,.4E-6,0
ONEWEB-0381,2021-090AE,2026-06-05T00:54:32.315328,13.20773080,.00020887,87.9193,276.8604,90.2844,269.8529,0,U,49307,999,22822,.11674165E-3,.6E-6,0
ONEWEB-0382,2021-090AF,2026-06-05T02:24:11.665728,13.20771961,.00021081,87.9192,276.8435,94.8283,265.3091,0,U,49308,999,22822,.8889045E-5,.17E-6,0
ONEWEB-0383,2021-090AG,2026-06-05T07:25:28.524288,13.14504524,.00018872,87.8961,292.0667,93.0956,267.0390,0,U,49309,999,22603,.50983302E-4,.32E-6,0
ONEWEB-0384,2021-090AH,2026-06-05T07:35:39.431904,13.20812043,.00021713,87.9189,276.8445,88.3443,271.7939,0,U,49310,999,22826,.23925034E-4,.23E-6,0
ONEWEB-0385,2021-090AJ,2026-06-05T02:14:32.356320,13.20771495,.00020345,87.9196,276.8491,102.7542,257.3819,0,U,49311,999,22820,.54865864E-4,.35E-6,0
ONEWEB-0386,2021-090AK,2026-06-04T17:33:19.573920,13.20772712,.000199,87.9205,276.9106,100.3473,259.7885,0,U,49312,999,22817,-.4663E-4,-.6E-7,0
ONEWEB-0387,2021-090AL,2026-06-05T02:16:57.773568,13.20772871,.00023451,87.9181,276.8645,99.7213,260.4186,0,U,49313,999,22822,-.16475477E-3,-.54E-6,0
ONEWEB-0388,2021-090AM,2026-06-05T03:00:44.799264,13.19726718,.00019176,87.9160,307.3735,91.8408,268.2944,0,U,49314,999,22482,.95299671E-4,.51E-6,0
ONEWEB-0389,2021-132A,2026-06-05T06:38:29.591232,13.17647789,.00021865,87.9142,8.2378,86.2978,273.8403,0,U,50469,999,21651,-.20870827E-4,.5E-7,0
ONEWEB-0390,2021-132B,2026-06-05T06:40:55.303104,13.17647804,.00018123,87.9141,8.2381,94.3802,265.7537,0,U,50470,999,21651,.31926309E-3,.137E-5,0
ONEWEB-0391,2021-132C,2026-06-05T06:43:21.214560,13.17647960,.000262,87.9144,8.2475,94.3447,265.7984,0,U,50471,999,21651,.40648715E-4,.29E-6,0
ONEWEB-0392,2021-132D,2026-06-05T01:59:03.792192,13.17650157,.00022508,87.9148,8.2542,85.4826,274.6563,0,U,50472,999,21652,-.3154052E-5,.12E-6,0
ONEWEB-0393,2021-132E,2026-06-05T06:51:52.423488,13.17649485,.00020079,87.9141,8.2319,87.1832,272.9529,0,U,50473,999,21654,-.14064577E-3,-.42E-6,0
ONEWEB-0394,2021-132F,2026-06-05T00:48:34.386912,13.18686730,.00020588,87.9166,337.8603,85.8803,274.2564,0,U,50474,999,21999,-.7098062E-3,-.267E-5,0
